STARLINK-35902          
1 66626U 25271K   25347.25002315 -.00136745  00000+0 -24875-2 0  9997
2 66626  53.1599 184.7563 0000472  87.0036 346.3979 15.49381909  4320
STARLINK-35904          
1 66627U 25271L   25347.25002315 -.00175205  00000+0 -32030-2 0  9994
2 66627  53.1598 184.7525 0000498  94.0744 341.2545 15.49399921  4168
STARLINK-35862          
1 66628U 25271M   25347.25002315 -.00167969  00000+0 -30680-2 0  9992
2 66628  53.1600 184.7483 0000569  85.5268 351.7179 15.49396194  4327
STARLINK-35956          
1 66629U 25271N   25347.25002315 -.00119248  00000+0 -21640-2 0  9996
2 66629  53.1599 184.7446 0000619  85.5531 353.5963 15.49372956  4324
STARLINK-35949          
1 66630U 25271P   25347.25002315 -.00159862  00000+0 -29182-2 0  9993
2 66630  53.1599 184.7396 0001054  98.3003 342.8051 15.49378624  4327
STARLINK-35965          
1 66631U 25271Q   25347.25002315  .00104653  00000+0  18686-2 0  9997
2 66631  53.1601 184.7365 0000417  68.6488  14.3346 15.49248069  4324
STARLINK-35973          
1 66632U 25271R   25347.25002315  .00059836  00000+0  10767-2 0  9992
2 66632  53.1600 184.7323 0000505  71.8573  13.0172 15.49280995  4267
STARLINK-35948          
1 66633U 25271S   25347.25002315  .00006860  00000+0  13126-3 0  9995
2 66633  53.1593 184.7269 0000919 107.2932 339.5706 15.49315427  4325
STARLINK-35967          
1 66634U 25271T   25347.25002315 -.00171441  00000+0 -31340-2 0  9993
2 66634  53.1599 184.7228 0000963  92.6002 356.1725 15.49385712  4253
STARLINK-35955          
1 66635U 25271U   25347.25002315 -.00135175  00000+0 -24619-2 0  9999
2 66635  53.1599 184.7193 0000128 204.5934 246.1747 15.49341647  4325
STARLINK-35968          
1 66636U 25271V   25347.25002315 -.00086837  00000+0 -15676-2 0  9993
2 66636  53.1598 184.7152 0000574  59.6246  32.9061 15.49365553  4322
STARLINK-35953          
1 66637U 25271W   25347.25002315  .00065824  00000+0  11839-2 0  9992
2 66637  53.1598 184.7111 0000452  67.8143  26.6517 15.49253052  4326
