CCSDS_OMM_VERS = 2.0
CREATION_DATE  = 
ORIGINATOR     = 

OBJECT_NAME    = STARLINK-35902
OBJECT_ID      = 2025-271K
CENTER_NAME    = EARTH
REF_FRAME      = TEME
TIME_SYSTEM    = UTC
MEAN_ELEMENT_THEORY = SGP/SGP4

EPOCH          = 2025-12-13T06:00:02.000160
MEAN_MOTION    = 15.49381909
ECCENTRICITY   = .00004726
INCLINATION    = 53.1599
RA_OF_ASC_NODE = 184.7563
ARG_OF_PERICENTER = 87.0036
MEAN_ANOMALY   = 346.3979

EPHEMERIS_TYPE = 0
CLASSIFICATION_TYPE = U
NORAD_CAT_ID   = 66626
ELEMENT_SET_NO = 999
REV_AT_EPOCH   = 432
BSTAR          = -.24875257E-2
MEAN_MOTION_DOT = -.136745E-2
MEAN_MOTION_DDOT = 0

CCSDS_OMM_VERS = 2.0
CREATION_DATE  = 
ORIGINATOR     = 

OBJECT_NAME    = STARLINK-35904
OBJECT_ID      = 2025-271L
CENTER_NAME    = EARTH
REF_FRAME      = TEME
TIME_SYSTEM    = UTC
MEAN_ELEMENT_THEORY = SGP/SGP4

EPOCH          = 2025-12-13T06:00:02.000160
MEAN_MOTION    = 15.49399921
ECCENTRICITY   = .00004986
INCLINATION    = 53.1598
RA_OF_ASC_NODE = 184.7525
ARG_OF_PERICENTER = 94.0744
MEAN_ANOMALY   = 341.2545

EPHEMERIS_TYPE = 0
CLASSIFICATION_TYPE = U
NORAD_CAT_ID   = 66627
ELEMENT_SET_NO = 999
REV_AT_EPOCH   = 416
BSTAR          = -.32030425E-2
MEAN_MOTION_DOT = -.175205E-2
MEAN_MOTION_DDOT = 0

CCSDS_OMM_VERS = 2.0
CREATION_DATE  = 
ORIGINATOR     = 

OBJECT_NAME    = STARLINK-35862
OBJECT_ID      = 2025-271M
CENTER_NAME    = EARTH
REF_FRAME      = TEME
TIME_SYSTEM    = UTC
MEAN_ELEMENT_THEORY = SGP/SGP4

EPOCH          = 2025-12-13T06:00:02.000160
MEAN_MOTION    = 15.49396194
ECCENTRICITY   = .00005692
INCLINATION    = 53.1600
RA_OF_ASC_NODE = 184.7483
ARG_OF_PERICENTER = 85.5268
MEAN_ANOMALY   = 351.7179

EPHEMERIS_TYPE = 0
CLASSIFICATION_TYPE = U
NORAD_CAT_ID   = 66628
ELEMENT_SET_NO = 999
REV_AT_EPOCH   = 432
BSTAR          = -.30679849E-2
MEAN_MOTION_DOT = -.167969E-2
MEAN_MOTION_DDOT = 0

CCSDS_OMM_VERS = 2.0
CREATION_DATE  = 
ORIGINATOR     = 

OBJECT_NAME    = STARLINK-35956
OBJECT_ID      = 2025-271N
CENTER_NAME    = EARTH
REF_FRAME      = TEME
TIME_SYSTEM    = UTC
MEAN_ELEMENT_THEORY = SGP/SGP4

EPOCH          = 2025-12-13T06:00:02.000160
MEAN_MOTION    = 15.49372956
ECCENTRICITY   = .00006193
INCLINATION    = 53.1599
RA_OF_ASC_NODE = 184.7446
ARG_OF_PERICENTER = 85.5531
MEAN_ANOMALY   = 353.5963

EPHEMERIS_TYPE = 0
CLASSIFICATION_TYPE = U
NORAD_CAT_ID   = 66629
ELEMENT_SET_NO = 999
REV_AT_EPOCH   = 432
BSTAR          = -.21640398E-2
MEAN_MOTION_DOT = -.119248E-2
MEAN_MOTION_DDOT = 0

CCSDS_OMM_VERS = 2.0
CREATION_DATE  = 
ORIGINATOR     = 

OBJECT_NAME    = STARLINK-35949
OBJECT_ID      = 2025-271P
CENTER_NAME    = EARTH
REF_FRAME      = TEME
TIME_SYSTEM    = UTC
MEAN_ELEMENT_THEORY = SGP/SGP4

EPOCH          = 2025-12-13T06:00:02.000160
MEAN_MOTION    = 15.49378624
ECCENTRICITY   = .00010549
INCLINATION    = 53.1599
RA_OF_ASC_NODE = 184.7396
ARG_OF_PERICENTER = 98.3003
MEAN_ANOMALY   = 342.8051

EPHEMERIS_TYPE = 0
CLASSIFICATION_TYPE = U
NORAD_CAT_ID   = 66630
ELEMENT_SET_NO = 999
REV_AT_EPOCH   = 432
BSTAR          = -.29181846E-2
MEAN_MOTION_DOT = -.159862E-2
MEAN_MOTION_DDOT = 0

CCSDS_OMM_VERS = 2.0
CREATION_DATE  = 
ORIGINATOR     = 

OBJECT_NAME    = STARLINK-35965
OBJECT_ID      = 2025-271Q
CENTER_NAME    = EARTH
REF_FRAME      = TEME
TIME_SYSTEM    = UTC
MEAN_ELEMENT_THEORY = SGP/SGP4

EPOCH          = 2025-12-13T06:00:02.000160
MEAN_MOTION    = 15.49248069
ECCENTRICITY   = .00004174
INCLINATION    = 53.1601
RA_OF_ASC_NODE = 184.7365
ARG_OF_PERICENTER = 68.6488
MEAN_ANOMALY   = 14.3346

EPHEMERIS_TYPE = 0
CLASSIFICATION_TYPE = U
NORAD_CAT_ID   = 66631
ELEMENT_SET_NO = 999
REV_AT_EPOCH   = 432
BSTAR          = .18685867E-2
MEAN_MOTION_DOT = .104653E-2
MEAN_MOTION_DDOT = 0

CCSDS_OMM_VERS = 2.0
CREATION_DATE  = 
ORIGINATOR     = 

OBJECT_NAME    = STARLINK-35973
OBJECT_ID      = 2025-271R
CENTER_NAME    = EARTH
REF_FRAME      = TEME
TIME_SYSTEM    = UTC
MEAN_ELEMENT_THEORY = SGP/SGP4

EPOCH          = 2025-12-13T06:00:02.000160
MEAN_MOTION    = 15.49280995
ECCENTRICITY   = .00005059
INCLINATION    = 53.1600
RA_OF_ASC_NODE = 184.7323
ARG_OF_PERICENTER = 71.8573
MEAN_ANOMALY   = 13.0172

EPHEMERIS_TYPE = 0
CLASSIFICATION_TYPE = U
NORAD_CAT_ID   = 66632
ELEMENT_SET_NO = 999
REV_AT_EPOCH   = 426
BSTAR          = .10767428E-2
MEAN_MOTION_DOT = .59836E-3
MEAN_MOTION_DDOT = 0

CCSDS_OMM_VERS = 2.0
CREATION_DATE  = 
ORIGINATOR     = 

OBJECT_NAME    = STARLINK-35948
OBJECT_ID      = 2025-271S
CENTER_NAME    = EARTH
REF_FRAME      = TEME
TIME_SYSTEM    = UTC
MEAN_ELEMENT_THEORY = SGP/SGP4

EPOCH          = 2025-12-13T06:00:02.000160
MEAN_MOTION    = 15.49315427
ECCENTRICITY   = .00009198
INCLINATION    = 53.1593
RA_OF_ASC_NODE = 184.7269
ARG_OF_PERICENTER = 107.2932
MEAN_ANOMALY   = 339.5706

EPHEMERIS_TYPE = 0
CLASSIFICATION_TYPE = U
NORAD_CAT_ID   = 66633
ELEMENT_SET_NO = 999
REV_AT_EPOCH   = 432
BSTAR          = .13125899E-3
MEAN_MOTION_DOT = .686E-4
MEAN_MOTION_DDOT = 0

CCSDS_OMM_VERS = 2.0
CREATION_DATE  = 
ORIGINATOR     = 

OBJECT_NAME    = STARLINK-35967
OBJECT_ID      = 2025-271T
CENTER_NAME    = EARTH
REF_FRAME      = TEME
TIME_SYSTEM    = UTC
MEAN_ELEMENT_THEORY = SGP/SGP4

EPOCH          = 2025-12-13T06:00:02.000160
MEAN_MOTION    = 15.49385712
ECCENTRICITY   = .00009638
INCLINATION    = 53.1599
RA_OF_ASC_NODE = 184.7228
ARG_OF_PERICENTER = 92.6002
MEAN_ANOMALY   = 356.1725

EPHEMERIS_TYPE = 0
CLASSIFICATION_TYPE = U
NORAD_CAT_ID   = 66634
ELEMENT_SET_NO = 999
REV_AT_EPOCH   = 425
BSTAR          = -.31340017E-2
MEAN_MOTION_DOT = -.171441E-2
MEAN_MOTION_DDOT = 0

CCSDS_OMM_VERS = 2.0
CREATION_DATE  = 
ORIGINATOR     = 

OBJECT_NAME    = STARLINK-35955
OBJECT_ID      = 2025-271U
CENTER_NAME    = EARTH
REF_FRAME      = TEME
TIME_SYSTEM    = UTC
MEAN_ELEMENT_THEORY = SGP/SGP4

EPOCH          = 2025-12-13T06:00:02.000160
MEAN_MOTION    = 15.49341647
ECCENTRICITY   = .00001288
INCLINATION    = 53.1599
RA_OF_ASC_NODE = 184.7193
ARG_OF_PERICENTER = 204.5934
MEAN_ANOMALY   = 246.1747

EPHEMERIS_TYPE = 0
CLASSIFICATION_TYPE = U
NORAD_CAT_ID   = 66635
ELEMENT_SET_NO = 999
REV_AT_EPOCH   = 432
BSTAR          = -.24619243E-2
MEAN_MOTION_DOT = -.135175E-2
MEAN_MOTION_DDOT = 0

CCSDS_OMM_VERS = 2.0
CREATION_DATE  = 
ORIGINATOR     = 

OBJECT_NAME    = STARLINK-35968
OBJECT_ID      = 2025-271V
CENTER_NAME    = EARTH
REF_FRAME      = TEME
TIME_SYSTEM    = UTC
MEAN_ELEMENT_THEORY = SGP/SGP4

EPOCH          = 2025-12-13T06:00:02.000160
MEAN_MOTION    = 15.49365553
ECCENTRICITY   = .00005748
INCLINATION    = 53.1598
RA_OF_ASC_NODE = 184.7152
ARG_OF_PERICENTER = 59.6246
MEAN_ANOMALY   = 32.9061

EPHEMERIS_TYPE = 0
CLASSIFICATION_TYPE = U
NORAD_CAT_ID   = 66636
ELEMENT_SET_NO = 999
REV_AT_EPOCH   = 432
BSTAR          = -.15675753E-2
MEAN_MOTION_DOT = -.86837E-3
MEAN_MOTION_DDOT = 0

CCSDS_OMM_VERS = 2.0
CREATION_DATE  = 
ORIGINATOR     = 

OBJECT_NAME    = STARLINK-35953
OBJECT_ID      = 2025-271W
CENTER_NAME    = EARTH
REF_FRAME      = TEME
TIME_SYSTEM    = UTC
MEAN_ELEMENT_THEORY = SGP/SGP4

EPOCH          = 2025-12-13T06:00:02.000160
MEAN_MOTION    = 15.49253052
ECCENTRICITY   = .00004524
INCLINATION    = 53.1598
RA_OF_ASC_NODE = 184.7111
ARG_OF_PERICENTER = 67.8143
MEAN_ANOMALY   = 26.6517

EPHEMERIS_TYPE = 0
CLASSIFICATION_TYPE = U
NORAD_CAT_ID   = 66637
ELEMENT_SET_NO = 999
REV_AT_EPOCH   = 432
BSTAR          = .1183933E-2
MEAN_MOTION_DOT = .65824E-3
MEAN_MOTION_DDOT = 0

